DELTA 1 R/B             
1 20323U 89089B   25322.56552058  .00000517  00000+0  13648-3 0  9991
2 20323  97.0771 182.6321 0070646 113.1974 247.6685 14.50544367879624
ARIANE 40 R/B           
1 20443U 90005H   25322.62439029  .00000457  00000+0  15936-3 0  9998
2 20443  98.3279  21.4802 0010334 172.8332 187.3006 14.39772697876828
DELTA 2 R/B(1)          
1 20453U 90008B   25322.63252723  .00036617  00000+0  62269-3 0  9995
2 20453  35.6060 175.9312 0116581 318.3072  40.8821 15.43038614908904
COSMOS 2058             
1 20465U 90010A   25322.77427426  .00004020  00000+0  24420-3 0  9990
2 20465  82.4633 156.6083 0010456   5.4686 354.6656 15.10194517925497
SL-14 R/B               
1 20466U 90010B   25322.59768574  .00000597  00000+0  69735-4 0  9997
2 20466  82.5042  11.7196 0018584 308.7956  51.1598 14.83440449912013
SL-14 R/B               
1 20511U 90018B   25322.44119381  .00000629  00000+0  76173-4 0  9996
2 20511  82.5201 327.0789 0017958  97.6757 262.6497 14.82012678906107
HST                     
1 20580U 90037B   25322.62302910  .00008448  00000+0  29616-3 0  9991
2 20580  28.4685  76.5759 0001506 342.8613  17.1931 15.27591520756308
SL-16 R/B               
1 20625U 90046B   25322.56901402 -.00000018  00000+0  15189-4 0  9992
2 20625  70.9959 171.2822 0012312 117.8552 242.3819 14.14990098832677
COSMOS 2084             
1 20663U 90055A   25322.51410338  .00003278  00000+0  24220-3 0  9997
2 20663  62.7917 354.5259 0035613 171.7610 188.4083 15.04815977919586
SL-6 R/B(2)             
1 20666U 90055D   25322.81586807  .00003265  00000+0  25622-3 0  9991
2 20666  62.7837 270.6933 0011006 288.6624  71.3280 15.02917224921522
SL-8 R/B                
1 20775U 90078B   25322.54514865  .00020334  00000+0  62795-3 0  9990
2 20775  82.9057 350.9415 0379505  26.9756 335.0635 14.84552307792782
SL-8 R/B                
1 21088U 91006B   25322.84423382  .00000113  00000+0  98442-4 0  9998
2 21088  82.9421 252.4861 0022349 349.3899  27.0295 13.77485824748812
