CCSDS_OMM_VERS = 2.0
CREATION_DATE  = 
ORIGINATOR     = 

OBJECT_NAME    = DELTA 1 R/B
OBJECT_ID      = 1989-089B
CENTER_NAME    = EARTH
REF_FRAME      = TEME
TIME_SYSTEM    = UTC
MEAN_ELEMENT_THEORY = SGP/SGP4

EPOCH          = 2025-11-18T13:34:20.978112
MEAN_MOTION    = 14.50544367
ECCENTRICITY   = .0070646
INCLINATION    = 97.0771
RA_OF_ASC_NODE = 182.6321
ARG_OF_PERICENTER = 113.1974
MEAN_ANOMALY   = 247.6685

EPHEMERIS_TYPE = 0
CLASSIFICATION_TYPE = U
NORAD_CAT_ID   = 20323
ELEMENT_SET_NO = 999
REV_AT_EPOCH   = 87962
BSTAR          = .13648E-3
MEAN_MOTION_DOT = .517E-5
MEAN_MOTION_DDOT = 0

CCSDS_OMM_VERS = 2.0
CREATION_DATE  = 
ORIGINATOR     = 

OBJECT_NAME    = ARIANE 40 R/B
OBJECT_ID      = 1990-005H
CENTER_NAME    = EARTH
REF_FRAME      = TEME
TIME_SYSTEM    = UTC
MEAN_ELEMENT_THEORY = SGP/SGP4

EPOCH          = 2025-11-18T14:59:07.321056
MEAN_MOTION    = 14.39772697
ECCENTRICITY   = .0010334
INCLINATION    = 98.3279
RA_OF_ASC_NODE = 21.4802
ARG_OF_PERICENTER = 172.8332
MEAN_ANOMALY   = 187.3006

EPHEMERIS_TYPE = 0
CLASSIFICATION_TYPE = U
NORAD_CAT_ID   = 20443
ELEMENT_SET_NO = 999
REV_AT_EPOCH   = 87682
BSTAR          = .15936E-3
MEAN_MOTION_DOT = .457E-5
MEAN_MOTION_DDOT = 0

CCSDS_OMM_VERS = 2.0
CREATION_DATE  = 
ORIGINATOR     = 

OBJECT_NAME    = DELTA 2 R/B(1)
OBJECT_ID      = 1990-008B
CENTER_NAME    = EARTH
REF_FRAME      = TEME
TIME_SYSTEM    = UTC
MEAN_ELEMENT_THEORY = SGP/SGP4

EPOCH          = 2025-11-18T15:10:50.352672
MEAN_MOTION    = 15.43038614
ECCENTRICITY   = .0116581
INCLINATION    = 35.6060
RA_OF_ASC_NODE = 175.9312
ARG_OF_PERICENTER = 318.3072
MEAN_ANOMALY   = 40.8821

EPHEMERIS_TYPE = 0
CLASSIFICATION_TYPE = U
NORAD_CAT_ID   = 20453
ELEMENT_SET_NO = 999
REV_AT_EPOCH   = 90890
BSTAR          = .62269E-3
MEAN_MOTION_DOT = .36617E-3
MEAN_MOTION_DDOT = 0

CCSDS_OMM_VERS = 2.0
CREATION_DATE  = 
ORIGINATOR     = 

OBJECT_NAME    = COSMOS 2058
OBJECT_ID      = 1990-010A
CENTER_NAME    = EARTH
REF_FRAME      = TEME
TIME_SYSTEM    = UTC
MEAN_ELEMENT_THEORY = SGP/SGP4

EPOCH          = 2025-11-18T18:34:57.296064
MEAN_MOTION    = 15.10194517
ECCENTRICITY   = .0010456
INCLINATION    = 82.4633
RA_OF_ASC_NODE = 156.6083
ARG_OF_PERICENTER = 5.4686
MEAN_ANOMALY   = 354.6656

EPHEMERIS_TYPE = 0
CLASSIFICATION_TYPE = U
NORAD_CAT_ID   = 20465
ELEMENT_SET_NO = 999
REV_AT_EPOCH   = 92549
BSTAR          = .2442E-3
MEAN_MOTION_DOT = .402E-4
MEAN_MOTION_DDOT = 0

CCSDS_OMM_VERS = 2.0
CREATION_DATE  = 
ORIGINATOR     = 

OBJECT_NAME    = SL-14 R/B
OBJECT_ID      = 1990-010B
CENTER_NAME    = EARTH
REF_FRAME      = TEME
TIME_SYSTEM    = UTC
MEAN_ELEMENT_THEORY = SGP/SGP4

EPOCH          = 2025-11-18T14:20:40.047936
MEAN_MOTION    = 14.83440449
ECCENTRICITY   = .0018584
INCLINATION    = 82.5042
RA_OF_ASC_NODE = 11.7196
ARG_OF_PERICENTER = 308.7956
MEAN_ANOMALY   = 51.1598

EPHEMERIS_TYPE = 0
CLASSIFICATION_TYPE = U
NORAD_CAT_ID   = 20466
ELEMENT_SET_NO = 999
REV_AT_EPOCH   = 91201
BSTAR          = .69735E-4
MEAN_MOTION_DOT = .597E-5
MEAN_MOTION_DDOT = 0

CCSDS_OMM_VERS = 2.0
CREATION_DATE  = 
ORIGINATOR     = 

OBJECT_NAME    = SL-14 R/B
OBJECT_ID      = 1990-018B
CENTER_NAME    = EARTH
REF_FRAME      = TEME
TIME_SYSTEM    = UTC
MEAN_ELEMENT_THEORY = SGP/SGP4

EPOCH          = 2025-11-18T10:35:19.145184
MEAN_MOTION    = 14.82012678
ECCENTRICITY   = .0017958
INCLINATION    = 82.5201
RA_OF_ASC_NODE = 327.0789
ARG_OF_PERICENTER = 97.6757
MEAN_ANOMALY   = 262.6497

EPHEMERIS_TYPE = 0
CLASSIFICATION_TYPE = U
NORAD_CAT_ID   = 20511
ELEMENT_SET_NO = 999
REV_AT_EPOCH   = 90610
BSTAR          = .76173E-4
MEAN_MOTION_DOT = .629E-5
MEAN_MOTION_DDOT = 0

CCSDS_OMM_VERS = 2.0
CREATION_DATE  = 
ORIGINATOR     = 

OBJECT_NAME    = HST
OBJECT_ID      = 1990-037B
CENTER_NAME    = EARTH
REF_FRAME      = TEME
TIME_SYSTEM    = UTC
MEAN_ELEMENT_THEORY = SGP/SGP4

EPOCH          = 2025-11-18T14:57:09.714240
MEAN_MOTION    = 15.27591520
ECCENTRICITY   = .0001506
INCLINATION    = 28.4685
RA_OF_ASC_NODE = 76.5759
ARG_OF_PERICENTER = 342.8613
MEAN_ANOMALY   = 17.1931

EPHEMERIS_TYPE = 0
CLASSIFICATION_TYPE = U
NORAD_CAT_ID   = 20580
ELEMENT_SET_NO = 999
REV_AT_EPOCH   = 75630
BSTAR          = .29616E-3
MEAN_MOTION_DOT = .8448E-4
MEAN_MOTION_DDOT = 0

CCSDS_OMM_VERS = 2.0
CREATION_DATE  = 
ORIGINATOR     = 

OBJECT_NAME    = SL-16 R/B
OBJECT_ID      = 1990-046B
CENTER_NAME    = EARTH
REF_FRAME      = TEME
TIME_SYSTEM    = UTC
MEAN_ELEMENT_THEORY = SGP/SGP4

EPOCH          = 2025-11-18T13:39:22.811328
MEAN_MOTION    = 14.14990098
ECCENTRICITY   = .0012312
INCLINATION    = 70.9959
RA_OF_ASC_NODE = 171.2822
ARG_OF_PERICENTER = 117.8552
MEAN_ANOMALY   = 242.3819

EPHEMERIS_TYPE = 0
CLASSIFICATION_TYPE = U
NORAD_CAT_ID   = 20625
ELEMENT_SET_NO = 999
REV_AT_EPOCH   = 83267
BSTAR          = .15189E-4
MEAN_MOTION_DOT = -.18E-6
MEAN_MOTION_DDOT = 0

CCSDS_OMM_VERS = 2.0
CREATION_DATE  = 
ORIGINATOR     = 

OBJECT_NAME    = COSMOS 2084
OBJECT_ID      = 1990-055A
CENTER_NAME    = EARTH
REF_FRAME      = TEME
TIME_SYSTEM    = UTC
MEAN_ELEMENT_THEORY = SGP/SGP4

EPOCH          = 2025-11-18T12:20:18.532032
MEAN_MOTION    = 15.04815977
ECCENTRICITY   = .0035613
INCLINATION    = 62.7917
RA_OF_ASC_NODE = 354.5259
ARG_OF_PERICENTER = 171.7610
MEAN_ANOMALY   = 188.4083

EPHEMERIS_TYPE = 0
CLASSIFICATION_TYPE = U
NORAD_CAT_ID   = 20663
ELEMENT_SET_NO = 999
REV_AT_EPOCH   = 91958
BSTAR          = .2422E-3
MEAN_MOTION_DOT = .3278E-4
MEAN_MOTION_DDOT = 0

CCSDS_OMM_VERS = 2.0
CREATION_DATE  = 
ORIGINATOR     = 

OBJECT_NAME    = SL-6 R/B(2)
OBJECT_ID      = 1990-055D
CENTER_NAME    = EARTH
REF_FRAME      = TEME
TIME_SYSTEM    = UTC
MEAN_ELEMENT_THEORY = SGP/SGP4

EPOCH          = 2025-11-18T19:34:51.001248
MEAN_MOTION    = 15.02917224
ECCENTRICITY   = .0011006
INCLINATION    = 62.7837
RA_OF_ASC_NODE = 270.6933
ARG_OF_PERICENTER = 288.6624
MEAN_ANOMALY   = 71.3280

EPHEMERIS_TYPE = 0
CLASSIFICATION_TYPE = U
NORAD_CAT_ID   = 20666
ELEMENT_SET_NO = 999
REV_AT_EPOCH   = 92152
BSTAR          = .25622E-3
MEAN_MOTION_DOT = .3265E-4
MEAN_MOTION_DDOT = 0

CCSDS_OMM_VERS = 2.0
CREATION_DATE  = 
ORIGINATOR     = 

OBJECT_NAME    = SL-8 R/B
OBJECT_ID      = 1990-078B
CENTER_NAME    = EARTH
REF_FRAME      = TEME
TIME_SYSTEM    = UTC
MEAN_ELEMENT_THEORY = SGP/SGP4

EPOCH          = 2025-11-18T13:05:00.843360
MEAN_MOTION    = 14.84552307
ECCENTRICITY   = .0379505
INCLINATION    = 82.9057
RA_OF_ASC_NODE = 350.9415
ARG_OF_PERICENTER = 26.9756
MEAN_ANOMALY   = 335.0635

EPHEMERIS_TYPE = 0
CLASSIFICATION_TYPE = U
NORAD_CAT_ID   = 20775
ELEMENT_SET_NO = 999
REV_AT_EPOCH   = 79278
BSTAR          = .62795E-3
MEAN_MOTION_DOT = .20334E-3
MEAN_MOTION_DDOT = 0

CCSDS_OMM_VERS = 2.0
CREATION_DATE  = 
ORIGINATOR     = 

OBJECT_NAME    = SL-8 R/B
OBJECT_ID      = 1991-006B
CENTER_NAME    = EARTH
REF_FRAME      = TEME
TIME_SYSTEM    = UTC
MEAN_ELEMENT_THEORY = SGP/SGP4

EPOCH          = 2025-11-18T20:15:41.802048
MEAN_MOTION    = 13.77485824
ECCENTRICITY   = .0022349
INCLINATION    = 82.9421
RA_OF_ASC_NODE = 252.4861
ARG_OF_PERICENTER = 349.3899
MEAN_ANOMALY   = 27.0295

EPHEMERIS_TYPE = 0
CLASSIFICATION_TYPE = U
NORAD_CAT_ID   = 21088
ELEMENT_SET_NO = 999
REV_AT_EPOCH   = 74881
BSTAR          = .98442E-4
MEAN_MOTION_DOT = .113E-5
MEAN_MOTION_DDOT = 0

